start=new Date('2022-12-27T00:00:00.000Z').valueOf();
sats=[{"SEMIMAJOR_AXIS":"6917.887","MEAN_ELEMENT_THEORY":"SGP4","MEAN_MOTION_DOT":"0.00000251","TIME_SYSTEM":"UTC","CENTER_NAME":"EARTH","NORAD_CAT_ID":"53142","MEAN_MOTION":"15.08837840","EPOCH":"2022-12-26T18:48:54.034272","APOAPSIS":"541.741","MEAN_MOTION_DDOT":"0.0000000000000","ARG_OF_PERICENTER":"28.0240","OBJECT_NAME":"STARLINK-4101","REV_AT_EPOCH":"2476","CLASSIFICATION_TYPE":"U","INCLINATION":"53.2185","DECAY_DATE":null,"REF_FRAME":"TEME","OBJECT_ID":"2022-083L","TLE_LINE2":"2 53142  53.2185  21.5559 0002875  28.0240 332.0906 15.08837840 24762","ECCENTRICITY":"0.00028750","TLE_LINE1":"1 53142U 22083L   22360.78395873  .00000251  00000-0  33914-4 0  9995","FILE":"3723236","MEAN_ANOMALY":"332.0906","PERIOD":"95.438","OBJECT_TYPE":"PAYLOAD","LAUNCH_DATE":"2022-07-17","PERIAPSIS":"537.763","EPHEMERIS_TYPE":"0","RCS_SIZE":"LARGE","GP_ID":"221526868","COUNTRY_CODE":"US","SITE":"AFETR","RA_OF_ASC_NODE":"21.5559","BSTAR":"0.00003391400000","ELEMENT_SET_NO":"999"},{"SEMIMAJOR_AXIS":"6917.906","MEAN_ELEMENT_THEORY":"SGP4","NORAD_CAT_ID":"53143","MEAN_MOTION":"15.08831773","TIME_SYSTEM":"UTC","MEAN_MOTION_DOT":"-0.00000137","CENTER_NAME":"EARTH","APOAPSIS":"540.872","MEAN_MOTION_DDOT":"0.0000000000000","ARG_OF_PERICENTER":"61.3163","EPOCH":"2022-12-26T12:06:09.803232","REV_AT_EPOCH":"2471","CLASSIFICATION_TYPE":"U","OBJECT_NAME":"STARLINK-4102","OBJECT_ID":"2022-083M","REF_FRAME":"TEME","ECCENTRICITY":"0.00015920","TLE_LINE2":"2 53143  53.2183  22.8017 0001592  61.3163 298.7989 15.08831773 24716","TLE_LINE1":"1 53143U 22083M   22360.50428013 -.00000137  00000-0  94697-5 0  9999","FILE":"3722937","MEAN_ANOMALY":"298.7989","INCLINATION":"53.2183","DECAY_DATE":null,"OBJECT_TYPE":"PAYLOAD","PERIOD":"95.438","GP_ID":"221493632","COUNTRY_CODE":"US","PERIAPSIS":"538.669","LAUNCH_DATE":"2022-07-17","RCS_SIZE":"LARGE","EPHEMERIS_TYPE":"0","RA_OF_ASC_NODE":"22.8017","ELEMENT_SET_NO":"999","BSTAR":"0.00000946970000","SITE":"AFETR"},{"EPOCH":"2022-12-26T18:43:35.356512","APOAPSIS":"541.813","ARG_OF_PERICENTER":"28.0744","MEAN_MOTION_DDOT":"0.0000000000000","OBJECT_NAME":"STARLINK-4100","CLASSIFICATION_TYPE":"U","REV_AT_EPOCH":"2475","MEAN_ELEMENT_THEORY":"SGP4","SEMIMAJOR_AXIS":"6917.872","TIME_SYSTEM":"UTC","MEAN_MOTION_DOT":"0.00001544","CENTER_NAME":"EARTH","MEAN_MOTION":"15.08842616","NORAD_CAT_ID":"53144","EPHEMERIS_TYPE":"0","RCS_SIZE":"LARGE","LAUNCH_DATE":"2022-07-17","PERIAPSIS":"537.662","GP_ID":"221527694","COUNTRY_CODE":"US","SITE":"AFETR","RA_OF_ASC_NODE":"21.5704","BSTAR":"0.00011512000000","ELEMENT_SET_NO":"999","INCLINATION":"53.2163","DECAY_DATE":null,"TLE_LINE2":"2 53144  53.2163  21.5704 0003000  28.0744 332.0410 15.08842616 24758","ECCENTRICITY":"0.00030000","OBJECT_ID":"2022-083N","REF_FRAME":"TEME","FILE":"3723236","TLE_LINE1":"1 53144U 22083N   22360.78027033  .00001544  00000-0  11512-3 0  9992","MEAN_ANOMALY":"332.0410","PERIOD":"95.437","OBJECT_TYPE":"PAYLOAD"},{"SEMIMAJOR_AXIS":"6917.885","MEAN_ELEMENT_THEORY":"SGP4","TIME_SYSTEM":"UTC","MEAN_MOTION_DOT":"0.00000944","CENTER_NAME":"EARTH","MEAN_MOTION":"15.08838475","NORAD_CAT_ID":"53145","EPOCH":"2022-12-26T18:17:05.774496","APOAPSIS":"541.582","ARG_OF_PERICENTER":"28.6657","MEAN_MOTION_DDOT":"0.0000000000000","OBJECT_NAME":"STARLINK-4106","CLASSIFICATION_TYPE":"U","REV_AT_EPOCH":"2475","INCLINATION":"53.2190","DECAY_DATE":null,"ECCENTRICITY":"0.00026480","TLE_LINE2":"2 53145  53.2190  21.6361 0002648  28.6657 331.4480 15.08838475 24753","OBJECT_ID":"2022-083P","REF_FRAME":"TEME","FILE":"3723236","TLE_LINE1":"1 53145U 22083P   22360.76187239  .00000944  00000-0  77444-4 0  9996","MEAN_ANOMALY":"331.4480","PERIOD":"95.438","OBJECT_TYPE":"PAYLOAD","RCS_SIZE":"LARGE","EPHEMERIS_TYPE":"0","PERIAPSIS":"537.918","LAUNCH_DATE":"2022-07-17","GP_ID":"221527488","COUNTRY_CODE":"US","SITE":"AFETR","RA_OF_ASC_NODE":"21.6361","BSTAR":"0.00007744400000","ELEMENT_SET_NO":"999"},{"BSTAR":"-0.00001241500000","ELEMENT_SET_NO":"999","RA_OF_ASC_NODE":"23.0695","SITE":"AFETR","COUNTRY_CODE":"US","GP_ID":"221493840","LAUNCH_DATE":"2022-07-17","PERIAPSIS":"537.911","RCS_SIZE":"LARGE","EPHEMERIS_TYPE":"0","OBJECT_TYPE":"PAYLOAD","PERIOD":"95.438","FILE":"3722937","TLE_LINE1":"1 53146U 22083Q   22360.44539429 -.00000486  00000-0 -12415-4 0  9994","MEAN_ANOMALY":"324.7081","REF_FRAME":"TEME","OBJECT_ID":"2022-083Q","TLE_LINE2":"2 53146  53.2193  23.0695 0002662  35.4087 324.7081 15.08837785 24702","ECCENTRICITY":"0.00026620","DECAY_DATE":null,"INCLINATION":"53.2193","REV_AT_EPOCH":"2470","CLASSIFICATION_TYPE":"U","OBJECT_NAME":"STARLINK-4099","MEAN_MOTION_DDOT":"0.0000000000000","ARG_OF_PERICENTER":"35.4087","APOAPSIS":"541.594","EPOCH":"2022-12-26T10:41:22.066656","NORAD_CAT_ID":"53146","MEAN_MOTION":"15.08837785","CENTER_NAME":"EARTH","TIME_SYSTEM":"UTC","MEAN_MOTION_DOT":"-0.00000486","MEAN_ELEMENT_THEORY":"SGP4","SEMIMAJOR_AXIS":"6917.887"},{"CENTER_NAME":"EARTH","MEAN_MOTION_DOT":"0.00000508","TIME_SYSTEM":"UTC","MEAN_MOTION":"15.08840397","NORAD_CAT_ID":"53147","MEAN_ELEMENT_THEORY":"SGP4","SEMIMAJOR_AXIS":"6917.879","OBJECT_NAME":"STARLINK-4094","CLASSIFICATION_TYPE":"U","REV_AT_EPOCH":"2540","EPOCH":"2022-12-26T18:11:48.036768","ARG_OF_PERICENTER":"27.4291","MEAN_MOTION_DDOT":"0.0000000000000","APOAPSIS":"541.636","PERIOD":"95.438","OBJECT_TYPE":"PAYLOAD","DECAY_DATE":null,"INCLINATION":"53.2189","TLE_LINE1":"1 53147U 22083R   22360.75819487  .00000508  00000-0  50038-4 0  9990","MEAN_ANOMALY":"332.6845","FILE":"3723236","TLE_LINE2":"2 53147  53.2189  21.6507 0002734  27.4291 332.6845 15.08840397 25409","ECCENTRICITY":"0.00027340","OBJECT_ID":"2022-083R","REF_FRAME":"TEME","SITE":"AFETR","ELEMENT_SET_NO":"999","BSTAR":"0.00005003800000","RA_OF_ASC_NODE":"21.6507","EPHEMERIS_TYPE":"0","RCS_SIZE":"LARGE","PERIAPSIS":"537.853","LAUNCH_DATE":"2022-07-17","COUNTRY_CODE":"US","GP_ID":"221526663"},{"GP_ID":"221527282","COUNTRY_CODE":"US","RCS_SIZE":"LARGE","EPHEMERIS_TYPE":"0","LAUNCH_DATE":"2022-07-17","PERIAPSIS":"538.170","RA_OF_ASC_NODE":"21.6244","BSTAR":"0.00003588600000","ELEMENT_SET_NO":"999","SITE":"AFETR","ECCENTRICITY":"0.00023180","TLE_LINE2":"2 53148  53.2193  21.6244 0002318  34.5206 325.5936 15.08830935 24752","REF_FRAME":"TEME","OBJECT_ID":"2022-083S","TLE_LINE1":"1 53148U 22083S   22360.76556127  .00000283  00000-0  35886-4 0  9995","MEAN_ANOMALY":"325.5936","FILE":"3723236","INCLINATION":"53.2193","DECAY_DATE":null,"OBJECT_TYPE":"PAYLOAD","PERIOD":"95.438","APOAPSIS":"541.377","ARG_OF_PERICENTER":"34.5206","MEAN_MOTION_DDOT":"0.0000000000000","EPOCH":"2022-12-26T18:22:24.493728","CLASSIFICATION_TYPE":"U","REV_AT_EPOCH":"2475","OBJECT_NAME":"STARLINK-4066","SEMIMAJOR_AXIS":"6917.908","MEAN_ELEMENT_THEORY":"SGP4","MEAN_MOTION":"15.08830935","NORAD_CAT_ID":"53148","TIME_SYSTEM":"UTC","MEAN_MOTION_DOT":"0.00000283","CENTER_NAME":"EARTH"},{"TLE_LINE2":"2 53149  53.2182  13.1006 0002686  26.4230 333.6899 15.08841176 24845","ECCENTRICITY":"0.00026860","REF_FRAME":"TEME","OBJECT_ID":"2022-083T","FILE":"3722937","TLE_LINE1":"1 53149U 22083T   22360.43527297  .00001558  00000-0  11600-3 0  9999","MEAN_ANOMALY":"333.6899","INCLINATION":"53.2182","DECAY_DATE":null,"OBJECT_TYPE":"PAYLOAD","PERIOD":"95.437","GP_ID":"221494459","COUNTRY_CODE":"US","RCS_SIZE":"LARGE","EPHEMERIS_TYPE":"0","PERIAPSIS":"537.884","LAUNCH_DATE":"2022-07-17","RA_OF_ASC_NODE":"13.1006","BSTAR":"0.00011600000000","ELEMENT_SET_NO":"999","SITE":"AFETR","SEMIMAJOR_AXIS":"6917.877","MEAN_ELEMENT_THEORY":"SGP4","MEAN_MOTION":"15.08841176","NORAD_CAT_ID":"53149","TIME_SYSTEM":"UTC","MEAN_MOTION_DOT":"0.00001558","CENTER_NAME":"EARTH","APOAPSIS":"541.600","ARG_OF_PERICENTER":"26.4230","MEAN_MOTION_DDOT":"0.0000000000000","EPOCH":"2022-12-26T10:26:47.584608","CLASSIFICATION_TYPE":"U","REV_AT_EPOCH":"2484","OBJECT_NAME":"STARLINK-4021"},{"MEAN_ELEMENT_THEORY":"SGP4","SEMIMAJOR_AXIS":"6917.874","NORAD_CAT_ID":"53150","MEAN_MOTION":"15.08842074","TIME_SYSTEM":"UTC","MEAN_MOTION_DOT":"0.00001793","CENTER_NAME":"EARTH","APOAPSIS":"541.685","MEAN_MOTION_DDOT":"0.0000000000000","ARG_OF_PERICENTER":"27.8812","EPOCH":"2022-12-26T11:25:05.389248","REV_AT_EPOCH":"2484","CLASSIFICATION_TYPE":"U","OBJECT_NAME":"STARLINK-4038","REF_FRAME":"TEME","OBJECT_ID":"2022-083U","ECCENTRICITY":"0.00028130","TLE_LINE2":"2 53150  53.2168  12.9157 0002813  27.8812 332.2331 15.08842074 24842","FILE":"3722937","TLE_LINE1":"1 53150U 22083U   22360.47575682  .00001793  00000-0  13071-3 0  9991","MEAN_ANOMALY":"332.2331","INCLINATION":"53.2168","DECAY_DATE":null,"OBJECT_TYPE":"PAYLOAD","PERIOD":"95.437","GP_ID":"221493427","COUNTRY_CODE":"US","PERIAPSIS":"537.793","LAUNCH_DATE":"2022-07-17","RCS_SIZE":"LARGE","EPHEMERIS_TYPE":"0","RA_OF_ASC_NODE":"12.9157","BSTAR":"0.00013071000000","ELEMENT_SET_NO":"999","SITE":"AFETR"},{"EPOCH":"2022-12-26T17:30:43.773984","APOAPSIS":"541.613","MEAN_MOTION_DDOT":"0.0000000000000","ARG_OF_PERICENTER":"24.7048","OBJECT_NAME":"STARLINK-4040","REV_AT_EPOCH":"2488","CLASSIFICATION_TYPE":"U","MEAN_ELEMENT_THEORY":"SGP4","SEMIMAJOR_AXIS":"6917.887","TIME_SYSTEM":"UTC","MEAN_MOTION_DOT":"0.00000624","CENTER_NAME":"EARTH","NORAD_CAT_ID":"53151","MEAN_MOTION":"15.08837687","LAUNCH_DATE":"2022-07-17","PERIAPSIS":"537.892","EPHEMERIS_TYPE":"0","RCS_SIZE":"LARGE","GP_ID":"221527075","COUNTRY_CODE":"US","SITE":"AFETR","RA_OF_ASC_NODE":"11.7801","BSTAR":"0.00005734500000","ELEMENT_SET_NO":"999","INCLINATION":"53.2194","DECAY_DATE":null,"REF_FRAME":"TEME","OBJECT_ID":"2022-083V","ECCENTRICITY":"0.00026890","TLE_LINE2":"2 53151  53.2194  11.7801 0002689  24.7048 335.4073 15.08837687 24889","TLE_LINE1":"1 53151U 22083V   22360.72967331  .00000624  00000-0  57345-4 0  9991","MEAN_ANOMALY":"335.4073","FILE":"3723236","PERIOD":"95.438","OBJECT_TYPE":"PAYLOAD"}];
